IRIDIUM 116             
1 43072U 17083C   25192.67485155  .00000044  00000+0  87926-5 0  9999
2 43072  86.3966 104.3764 0001937  83.9235 276.2181 14.34217666395364
IRIDIUM 130             
1 43073U 17083D   25192.78267532  .00000010  00000+0 -34993-5 0  9999
2 43073  86.3975 104.5735 0001766  76.7876 283.3517 14.34217513395325
IRIDIUM 151             
1 43074U 17083E   25192.68753667  .00000045  00000+0  91024-5 0  9993
2 43074  86.3967 104.4215 0001948  86.0639 274.0780 14.34217725395337
IRIDIUM 134             
1 43075U 17083F   25192.79536068  .00000047  00000+0  96571-5 0  9994
2 43075  86.3969 104.3797 0001997  78.6408 281.5012 14.34217770395318
IRIDIUM 137             
1 43076U 17083G   25192.45920303  .00000044  00000+0  86490-5 0  9993
2 43076  86.3971 104.6061 0001815  99.4104 260.7297 14.34217689395337
IRIDIUM 141             
1 43077U 17083H   25192.80171043  .00000198  00000+0  63683-4 0  9990
2 43077  86.3965 104.3129 0002385  83.2187 276.9280 14.34217470395382
IRIDIUM 153             
1 43078U 17083J   25192.96318838  .00000012  00000+0 -28829-5 0  9993
2 43078  86.3943  72.7070 0002434  78.9526 281.1943 14.34217583396510
IRIDIUM 131             
1 43079U 17083K   25192.78901889  .00000037  00000+0  61751-5 0  9995
2 43079  86.3972 104.4815 0002341  86.9868 273.1596 14.34217734395318
